[
  {
    "COMMENT": "GENERATED VIA SPACETRACK.ORG API",
    "ORIGINATOR": "18 SPCS",
    "NORAD_CAT_ID": "46984",
    "OBJECT_NAME": "S6 MICHAEL FREILICH",
    "OBJECT_TYPE": "PAYLOAD",
    "CLASSIFICATION_TYPE": "U",
    "INTLDES": "20086A",
    "EPOCH": "2022-05-29 05:37:17",
    "EPOCH_MICROSECONDS": "220576",
    "MEAN_MOTION": "12.80930875",
    "ECCENTRICITY": "0.0007745",
    "INCLINATION": "66.0447",
    "RA_OF_ASC_NODE": "328.9455",
    "ARG_OF_PERICENTER": "267.3287",
    "MEAN_ANOMALY": "92.6844",
    "EPHEMERIS_TYPE": "0",
    "ELEMENT_SET_NO": "999",
    "REV_AT_EPOCH": "7090",
    "BSTAR": "0",
    "MEAN_MOTION_DOT": "-0.00000061",
    "MEAN_MOTION_DDOT": "0",
    "FILE": "3470904",
    "TLE_LINE0": "0 S6 MICHAEL FREILICH",
    "TLE_LINE1": "1 46984U 20086A   22149.23422709 -.00000061  00000-0  00000-0 0  9992",
    "TLE_LINE2": "2 46984  66.0447 328.9455 0007745 267.3287  92.6844 12.80930875 70906",
    "OBJECT_ID": "2020-086A",
    "OBJECT_NUMBER": "46984",
    "SEMIMAJOR_AXIS": "7715.867",
    "PERIOD": "112.418",
    "APOGEE": "1343.708",
    "PERIGEE": "1331.756",
    "DECAYED": "0"
  },
  {
    "COMMENT": "GENERATED VIA SPACETRACK.ORG API",
    "ORIGINATOR": "18 SPCS",
    "NORAD_CAT_ID": "46984",
    "OBJECT_NAME": "S6 MICHAEL FREILICH",
    "OBJECT_TYPE": "PAYLOAD",
    "CLASSIFICATION_TYPE": "U",
    "INTLDES": "20086A",
    "EPOCH": "2022-05-29 16:51:51",
    "EPOCH_MICROSECONDS": "761952",
    "MEAN_MOTION": "12.80930875",
    "ECCENTRICITY": "0.0007752",
    "INCLINATION": "66.0447",
    "RA_OF_ASC_NODE": "327.9724",
    "ARG_OF_PERICENTER": "267.0803",
    "MEAN_ANOMALY": "92.9327",
    "EPHEMERIS_TYPE": "0",
    "ELEMENT_SET_NO": "999",
    "REV_AT_EPOCH": "7096",
    "BSTAR": "0",
    "MEAN_MOTION_DOT": "-0.00000061",
    "MEAN_MOTION_DDOT": "0",
    "FILE": "3471362",
    "TLE_LINE0": "0 S6 MICHAEL FREILICH",
    "TLE_LINE1": "1 46984U 20086A   22149.70268243 -.00000061  00000-0  00000-0 0  9995",
    "TLE_LINE2": "2 46984  66.0447 327.9724 0007752 267.0803  92.9327 12.80930875 70968",
    "OBJECT_ID": "2020-086A",
    "OBJECT_NUMBER": "46984",
    "SEMIMAJOR_AXIS": "7715.867",
    "PERIOD": "112.418",
    "APOGEE": "1343.713",
    "PERIGEE": "1331.750",
    "DECAYED": "0"
  },
  {
    "COMMENT": "GENERATED VIA SPACETRACK.ORG API",
    "ORIGINATOR": "18 SPCS",
    "NORAD_CAT_ID": "46984",
    "OBJECT_NAME": "S6 MICHAEL FREILICH",
    "OBJECT_TYPE": "PAYLOAD",
    "CLASSIFICATION_TYPE": "U",
    "INTLDES": "20086A",
    "EPOCH": "2022-05-30 09:43:43",
    "EPOCH_MICROSECONDS": "567968",
    "MEAN_MOTION": "12.80930883",
    "ECCENTRICITY": "0.0007754",
    "INCLINATION": "66.0444",
    "RA_OF_ASC_NODE": "326.5127",
    "ARG_OF_PERICENTER": "266.9723",
    "MEAN_ANOMALY": "93.041",
    "EPHEMERIS_TYPE": "0",
    "ELEMENT_SET_NO": "999",
    "REV_AT_EPOCH": "7105",
    "BSTAR": "0",
    "MEAN_MOTION_DOT": "-0.00000061",
    "MEAN_MOTION_DDOT": "0",
    "FILE": "3472242",
    "TLE_LINE0": "0 S6 MICHAEL FREILICH",
    "TLE_LINE1": "1 46984U 20086A   22150.40536537 -.00000061  00000-0  00000+0 0  9997",
    "TLE_LINE2": "2 46984  66.0444 326.5127 0007754 266.9723  93.0410 12.80930883 71053",
    "OBJECT_ID": "2020-086A",
    "OBJECT_NUMBER": "46984",
    "SEMIMAJOR_AXIS": "7715.867",
    "PERIOD": "112.418",
    "APOGEE": "1343.714",
    "PERIGEE": "1331.749",
    "DECAYED": "0"
  },
  {
    "COMMENT": "GENERATED VIA SPACETRACK.ORG API",
    "ORIGINATOR": "18 SPCS",
    "NORAD_CAT_ID": "46984",
    "OBJECT_NAME": "S6 MICHAEL FREILICH",
    "OBJECT_TYPE": "PAYLOAD",
    "CLASSIFICATION_TYPE": "U",
    "INTLDES": "20086A",
    "EPOCH": "2022-05-30 09:43:43",
    "EPOCH_MICROSECONDS": "567968",
    "MEAN_MOTION": "12.80930883",
    "ECCENTRICITY": "0.0007754",
    "INCLINATION": "66.0444",
    "RA_OF_ASC_NODE": "326.5127",
    "ARG_OF_PERICENTER": "266.9723",
    "MEAN_ANOMALY": "93.041",
    "EPHEMERIS_TYPE": "0",
    "ELEMENT_SET_NO": "999",
    "REV_AT_EPOCH": "7105",
    "BSTAR": "0",
    "MEAN_MOTION_DOT": "-0.00000061",
    "MEAN_MOTION_DDOT": "0",
    "FILE": "3472495",
    "TLE_LINE0": "0 S6 MICHAEL FREILICH",
    "TLE_LINE1": "1 46984U 20086A   22150.40536537 -.00000061  00000-0  00000-0 0  9998",
    "TLE_LINE2": "2 46984  66.0444 326.5127 0007754 266.9723  93.0410 12.80930883 71053",
    "OBJECT_ID": "2020-086A",
    "OBJECT_NUMBER": "46984",
    "SEMIMAJOR_AXIS": "7715.867",
    "PERIOD": "112.418",
    "APOGEE": "1343.714",
    "PERIGEE": "1331.749",
    "DECAYED": "0"
  },
  {
    "COMMENT": "GENERATED VIA SPACETRACK.ORG API",
    "ORIGINATOR": "18 SPCS",
    "NORAD_CAT_ID": "46984",
    "OBJECT_NAME": "S6 MICHAEL FREILICH",
    "OBJECT_TYPE": "PAYLOAD",
    "CLASSIFICATION_TYPE": "U",
    "INTLDES": "20086A",
    "EPOCH": "2022-05-30 17:13:26",
    "EPOCH_MICROSECONDS": "586912",
    "MEAN_MOTION": "12.80930888",
    "ECCENTRICITY": "0.0007764",
    "INCLINATION": "66.0443",
    "RA_OF_ASC_NODE": "325.864",
    "ARG_OF_PERICENTER": "266.8178",
    "MEAN_ANOMALY": "93.1952",
    "EPHEMERIS_TYPE": "0",
    "ELEMENT_SET_NO": "999",
    "REV_AT_EPOCH": "7109",
    "BSTAR": "0",
    "MEAN_MOTION_DOT": "-0.00000061",
    "MEAN_MOTION_DDOT": "0",
    "FILE": "3472994",
    "TLE_LINE0": "0 S6 MICHAEL FREILICH",
    "TLE_LINE1": "1 46984U 20086A   22150.71766883 -.00000061  00000-0  00000-0 0  9991",
    "TLE_LINE2": "2 46984  66.0443 325.8640 0007764 266.8178  93.1952 12.80930888 71099",
    "OBJECT_ID": "2020-086A",
    "OBJECT_NUMBER": "46984",
    "SEMIMAJOR_AXIS": "7715.867",
    "PERIOD": "112.418",
    "APOGEE": "1343.722",
    "PERIGEE": "1331.741",
    "DECAYED": "0"
  },
  {
    "COMMENT": "GENERATED VIA SPACETRACK.ORG API",
    "ORIGINATOR": "18 SPCS",
    "NORAD_CAT_ID": "46984",
    "OBJECT_NAME": "S6 MICHAEL FREILICH",
    "OBJECT_TYPE": "PAYLOAD",
    "CLASSIFICATION_TYPE": "U",
    "INTLDES": "20086A",
    "EPOCH": "2022-05-31 04:28:01",
    "EPOCH_MICROSECONDS": "123104",
    "MEAN_MOTION": "12.80930895",
    "ECCENTRICITY": "0.0007761",
    "INCLINATION": "66.0441",
    "RA_OF_ASC_NODE": "324.8906",
    "ARG_OF_PERICENTER": "266.7471",
    "MEAN_ANOMALY": "93.2661",
    "EPHEMERIS_TYPE": "0",
    "ELEMENT_SET_NO": "999",
    "REV_AT_EPOCH": "7115",
    "BSTAR": "0",
    "MEAN_MOTION_DOT": "-0.00000061",
    "MEAN_MOTION_DDOT": "0",
    "FILE": "3474118",
    "TLE_LINE0": "0 S6 MICHAEL FREILICH",
    "TLE_LINE1": "1 46984U 20086A   22151.18612411 -.00000061  00000-0  00000-0 0  9990",
    "TLE_LINE2": "2 46984  66.0441 324.8906 0007761 266.7471  93.2661 12.80930895 71156",
    "OBJECT_ID": "2020-086A",
    "OBJECT_NUMBER": "46984",
    "SEMIMAJOR_AXIS": "7715.867",
    "PERIOD": "112.418",
    "APOGEE": "1343.720",
    "PERIGEE": "1331.743",
    "DECAYED": "0"
  },
  {
    "COMMENT": "GENERATED VIA SPACETRACK.ORG API",
    "ORIGINATOR": "18 SPCS",
    "NORAD_CAT_ID": "46984",
    "OBJECT_NAME": "S6 MICHAEL FREILICH",
    "OBJECT_TYPE": "PAYLOAD",
    "CLASSIFICATION_TYPE": "U",
    "INTLDES": "20086A",
    "EPOCH": "2022-05-31 11:57:44",
    "EPOCH_MICROSECONDS": "142912",
    "MEAN_MOTION": "12.80930919",
    "ECCENTRICITY": "0.0007792",
    "INCLINATION": "66.044",
    "RA_OF_ASC_NODE": "324.2417",
    "ARG_OF_PERICENTER": "266.466",
    "MEAN_ANOMALY": "93.5477",
    "EPHEMERIS_TYPE": "0",
    "ELEMENT_SET_NO": "999",
    "REV_AT_EPOCH": "7119",
    "BSTAR": "0",
    "MEAN_MOTION_DOT": "-0.00000061",
    "MEAN_MOTION_DDOT": "0",
    "FILE": "3473951",
    "TLE_LINE0": "0 S6 MICHAEL FREILICH",
    "TLE_LINE1": "1 46984U 20086A   22151.49842758 -.00000061  00000-0  00000+0 0  9992",
    "TLE_LINE2": "2 46984  66.0440 324.2417 0007792 266.4660  93.5477 12.80930919 71196",
    "OBJECT_ID": "2020-086A",
    "OBJECT_NUMBER": "46984",
    "SEMIMAJOR_AXIS": "7715.866",
    "PERIOD": "112.418",
    "APOGEE": "1343.744",
    "PERIGEE": "1331.719",
    "DECAYED": "0"
  },
  {
    "COMMENT": "GENERATED VIA SPACETRACK.ORG API",
    "ORIGINATOR": "18 SPCS",
    "NORAD_CAT_ID": "46984",
    "OBJECT_NAME": "S6 MICHAEL FREILICH",
    "OBJECT_TYPE": "PAYLOAD",
    "CLASSIFICATION_TYPE": "U",
    "INTLDES": "20086A",
    "EPOCH": "2022-05-31 17:35:01",
    "EPOCH_MICROSECONDS": "391136",
    "MEAN_MOTION": "12.80930918",
    "ECCENTRICITY": "0.0007797",
    "INCLINATION": "66.0438",
    "RA_OF_ASC_NODE": "323.7551",
    "ARG_OF_PERICENTER": "266.3842",
    "MEAN_ANOMALY": "93.6286",
    "EPHEMERIS_TYPE": "0",
    "ELEMENT_SET_NO": "999",
    "REV_AT_EPOCH": "7122",
    "BSTAR": "0",
    "MEAN_MOTION_DOT": "-0.00000061",
    "MEAN_MOTION_DDOT": "0",
    "FILE": "3474670",
    "TLE_LINE0": "0 S6 MICHAEL FREILICH",
    "TLE_LINE1": "1 46984U 20086A   22151.73265499 -.00000061  00000-0  00000-0 0  9991",
    "TLE_LINE2": "2 46984  66.0438 323.7551 0007797 266.3842  93.6286 12.80930918 71224",
    "OBJECT_ID": "2020-086A",
    "OBJECT_NUMBER": "46984",
    "SEMIMAJOR_AXIS": "7715.866",
    "PERIOD": "112.418",
    "APOGEE": "1343.748",
    "PERIGEE": "1331.715",
    "DECAYED": "0"
  }
]